[{"OBJECT_NAME":"ORBCOMM FM112","OBJECT_ID":"2015-081F","EPOCH":"2026-03-09T06:49:20.492544","MEAN_MOTION":14.58729862,"ECCENTRICITY":9.704e-5,"INCLINATION":47.0003,"RA_OF_ASC_NODE":22.5762,"ARG_OF_PERICENTER":95.8711,"MEAN_ANOMALY":264.2285,"EPHEMERIS_TYPE":0,"CLASSIFICATION_TYPE":"U","NORAD_CAT_ID":41184,"ELEMENT_SET_NO":999,"REV_AT_EPOCH":54436,"BSTAR":0.00024093646,"MEAN_MOTION_DOT":9.65e-6,"MEAN_MOTION_DDOT":0},{"OBJECT_NAME":"FENGYUN 1C DEB","OBJECT_ID":"1999-025AFP","EPOCH":"2026-03-09T09:09:10.381824","MEAN_MOTION":14.6886164,"ECCENTRICITY":0.00432916,"INCLINATION":99.3247,"RA_OF_ASC_NODE":223.8258,"ARG_OF_PERICENTER":345.5835,"MEAN_ANOMALY":72.6597,"EPHEMERIS_TYPE":0,"CLASSIFICATION_TYPE":"U","NORAD_CAT_ID":30452,"ELEMENT_SET_NO":999,"REV_AT_EPOCH":99377,"BSTAR":0.0032120046,"MEAN_MOTION_DOT":0.00019026,"MEAN_MOTION_DDOT":0}]
